{"type": "FeatureCollection", "features": [{"type": "Feature", "id": 1, "geometry": {"type": "Point", "coordinates": [-85.56411398827073, 30.24187199713026]}, "properties": {"OBJECTID": 1, "Name": "Tommy Smith ES", "Address": "5044 Tommy Smith Way", "City": "Panama City", "Zip": "32404", "COUNTY": "BAY", "X": -85.56411399, "Y": 30.241872, "LONGLAT": "-85.56411399, 30.24187200", "USNG": "16R FU 38157 46459", "FACILITY_TYPE": "SHELTER", "SHELTER_TYPE": "RISK", "RPC_Region": "1", "Year_Built": "1991", "Building": "2 Classroom", "AS_IS_A_Retrofit_R": "R", "Generator_Type": " ", "PreMitigation_Capacity_Spaces": 0, "PreMitigation_Square_Footage": 0, "EHPA_Capacity_Gained_Spaces": 0, "EHPA_Square_Footage_Gained": 0, "Retrofit_Capacity_Gained_Spaces": 400, "Retrofit_Square_Footage_Gained": 8007, "Risk_Capacity_Spaces": 400, "Risk_Square_Footage": 8007, "Planned_Usage_Spaces": 0, "FundingSource_F_Federal_State_S": "HMGP", "Evacuation_Zone": "No", "SURGE_ZONE": "No", "FLOOD_ZONE": "No", "EHPA": "No", "General_Pop": "Yes", "SPECIAL_NEEDS": " ", "Pet_Friendly": "Yes", "Does_not_meet_ARC_4496": " ", "Survey_Needed": " "}}, {"type": "Feature", "id": 2, "geometry": {"type": "Point", "coordinates": [-85.66797901193353, 30.168730001173138]}, "properties": {"OBJECTID": 2, "Name": "Jinks MS", "Address": "600 W 11th St", "City": "Panama City", "Zip": "32401", "COUNTY": "BAY", "X": -85.66797901, "Y": 30.16873, "LONGLAT": "-85.66797901, 30.16873000", "USNG": "16R FU 28258 38231", "FACILITY_TYPE": "SHELTER", "SHELTER_TYPE": "RISK", "RPC_Region": "1", "Year_Built": "2003", "Building": "6 Band / Classroom", "AS_IS_A_Retrofit_R": "R", "Generator_Type": " ", "PreMitigation_Capacity_Spaces": 0, "PreMitigation_Square_Footage": 0, "EHPA_Capacity_Gained_Spaces": 0, "EHPA_Square_Footage_Gained": 0, "Retrofit_Capacity_Gained_Spaces": 125, "Retrofit_Square_Footage_Gained": 2769, "Risk_Capacity_Spaces": 138, "Risk_Square_Footage": 2769, "Planned_Usage_Spaces": 125, "FundingSource_F_Federal_State_S": "HMGP", "Evacuation_Zone": "No", "SURGE_ZONE": "No", "FLOOD_ZONE": "No", "EHPA": "No", "General_Pop": "Yes", "SPECIAL_NEEDS": " ", "Pet_Friendly": "Yes", "Does_not_meet_ARC_4496": " ", "Survey_Needed": " "}}, {"type": "Feature", "id": 3, "geometry": {"type": "Point", "coordinates": [-85.64126697604868, 30.166847006334585]}, "properties": {"OBJECTID": 3, "Name": "Rosenwald HS", "Address": "1310 E 11th St", "City": "Panama City", "Zip": "32401", "COUNTY": "BAY", "X": -85.64126698, "Y": 30.16684701, "LONGLAT": "-85.64126698, 30.16684701", "USNG": "16R FU 30833 38053", "FACILITY_TYPE": "SHELTER", "SHELTER_TYPE": "RISK", "RPC_Region": "1", "Year_Built": "2002", "Building": "13 Classroom", "AS_IS_A_Retrofit_R": "R", "Generator_Type": " ", "PreMitigation_Capacity_Spaces": 0, "PreMitigation_Square_Footage": 0, "EHPA_Capacity_Gained_Spaces": 0, "EHPA_Square_Footage_Gained": 0, "Retrofit_Capacity_Gained_Spaces": 175, "Retrofit_Square_Footage_Gained": 3493, "Risk_Capacity_Spaces": 175, "Risk_Square_Footage": 3493, "Planned_Usage_Spaces": 202, "FundingSource_F_Federal_State_S": " ", "Evacuation_Zone": "No", "SURGE_ZONE": "No", "FLOOD_ZONE": "No", "EHPA": "No", "General_Pop": "Yes", "SPECIAL_NEEDS": " ", "Pet_Friendly": "Yes", "Does_not_meet_ARC_4496": " ", "Survey_Needed": " "}}, {"type": "Feature", "id": 4, "geometry": {"type": "Point", "coordinates": [-85.68895470632282, 30.39417873145063]}, "properties": {"OBJECTID": 4, "Name": "Bozeman Learning Center", "Address": "13410 SR 77", "City": "Panama City", "Zip": "32409", "COUNTY": "BAY", "X": -85.68895471, "Y": 30.39417873, "LONGLAT": "-85.68895471, 30.39417873", "USNG": "16R FU 25949 63194", "FACILITY_TYPE": "SHELTER", "SHELTER_TYPE": "RISK", "RPC_Region": "1", "Year_Built": "2000", "Building": "5 Classroom", "AS_IS_A_Retrofit_R": "R", "Generator_Type": " ", "PreMitigation_Capacity_Spaces": 0, "PreMitigation_Square_Footage": 0, "EHPA_Capacity_Gained_Spaces": 0, "EHPA_Square_Footage_Gained": 0, "Retrofit_Capacity_Gained_Spaces": 686, "Retrofit_Square_Footage_Gained": 11518, "Risk_Capacity_Spaces": 576, "Risk_Square_Footage": 11518, "Planned_Usage_Spaces": 686, "FundingSource_F_Federal_State_S": "HMGP", "Evacuation_Zone": "No", "SURGE_ZONE": "No", "FLOOD_ZONE": "No", "EHPA": "No", "General_Pop": "Yes", "SPECIAL_NEEDS": " ", "Pet_Friendly": "Yes", "Does_not_meet_ARC_4496": " ", "Survey_Needed": " "}}, {"type": "Feature", "id": 5, "geometry": {"type": "Point", "coordinates": [-85.56411398827073, 30.24187199713026]}, "properties": {"OBJECTID": 5, "Name": "Tommy Smith ES", "Address": "5044 Tommy Smith Way", "City": "Panama City", "Zip": "32404", "COUNTY": "BAY", "X": -85.56411399, "Y": 30.241872, "LONGLAT": "-85.56411399, 30.24187200", "USNG": "16R FU 38157 46459", "FACILITY_TYPE": "SHELTER", "SHELTER_TYPE": "RISK", "RPC_Region": "1", "Year_Built": "1991", "Building": "3 Classroom", "AS_IS_A_Retrofit_R": "R", "Generator_Type": " ", "PreMitigation_Capacity_Spaces": 0, "PreMitigation_Square_Footage": 0, "EHPA_Capacity_Gained_Spaces": 0, "EHPA_Square_Footage_Gained": 0, "Retrofit_Capacity_Gained_Spaces": 426, "Retrofit_Square_Footage_Gained": 8515, "Risk_Capacity_Spaces": 426, "Risk_Square_Footage": 8515, "Planned_Usage_Spaces": 0, "FundingSource_F_Federal_State_S": "HMGP", "Evacuation_Zone": "No", "SURGE_ZONE": "No", "FLOOD_ZONE": "No", "EHPA": "No", "General_Pop": "Yes", "SPECIAL_NEEDS": " ", "Pet_Friendly": "Yes", "Does_not_meet_ARC_4496": " ", "Survey_Needed": " "}}, {"type": "Feature", "id": 6, "geometry": {"type": "Point", "coordinates": [-85.64554131185146, 30.20228600143931]}, "properties": {"OBJECTID": 6, "Name": "New Horizons Learning Center", "Address": "3100 Minnesota Ave", "City": "Panama City", "Zip": "32405", "COUNTY": "BAY", "X": -85.64554131, "Y": 30.202286, "LONGLAT": "-85.64554131, 30.20228600", "USNG": "16R FU 30374 41975", "FACILITY_TYPE": "SHELTER", "SHELTER_TYPE": "RISK", "RPC_Region": "1", "Year_Built": "0", "Building": "2", "AS_IS_A_Retrofit_R": "A", "Generator_Type": " ", "PreMitigation_Capacity_Spaces": 0, "PreMitigation_Square_Footage": 0, "EHPA_Capacity_Gained_Spaces": 222, "EHPA_Square_Footage_Gained": 4443, "Retrofit_Capacity_Gained_Spaces": 0, "Retrofit_Square_Footage_Gained": 0, "Risk_Capacity_Spaces": 222, "Risk_Square_Footage": 4443, "Planned_Usage_Spaces": 0, "FundingSource_F_Federal_State_S": "L", "Evacuation_Zone": "No", "SURGE_ZONE": "No", "FLOOD_ZONE": "No", "EHPA": "Yes", "General_Pop": "Yes", "SPECIAL_NEEDS": " ", "Pet_Friendly": "Yes", "Does_not_meet_ARC_4496": " ", "Survey_Needed": "Yes"}}, {"type": "Feature", "id": 7, "geometry": {"type": "Point", "coordinates": [-85.70702904163672, 30.183323983899662]}, "properties": {"OBJECTID": 7, "Name": "Moore ES", "Address": "1900 Michigan Ave", "City": "Panama City", "Zip": "32405", "COUNTY": "BAY", "X": -85.70702904, "Y": 30.18332398, "LONGLAT": "-85.70702904, 30.18332398", "USNG": "16R FU 24479 39805", "FACILITY_TYPE": "SHELTER", "SHELTER_TYPE": "RISK", "RPC_Region": "1", "Year_Built": "1996", "Building": "5 Media (13)", "AS_IS_A_Retrofit_R": "R", "Generator_Type": " ", "PreMitigation_Capacity_Spaces": 0, "PreMitigation_Square_Footage": 0, "EHPA_Capacity_Gained_Spaces": 0, "EHPA_Square_Footage_Gained": 0, "Retrofit_Capacity_Gained_Spaces": 46, "Retrofit_Square_Footage_Gained": 925, "Risk_Capacity_Spaces": 46, "Risk_Square_Footage": 925, "Planned_Usage_Spaces": 0, "FundingSource_F_Federal_State_S": "HMGP", "Evacuation_Zone": "D", "SURGE_ZONE": "5", "FLOOD_ZONE": "No", "EHPA": "No", "General_Pop": "Yes", "SPECIAL_NEEDS": " ", "Pet_Friendly": "Yes", "Does_not_meet_ARC_4496": " ", "Survey_Needed": " "}}, {"type": "Feature", "id": 8, "geometry": {"type": "Point", "coordinates": [-85.65870602894245, 30.170614001328936]}, "properties": {"OBJECTID": 8, "Name": "Bay HS", "Address": "1204 Harrison Ave", "City": "Panama City", "Zip": "32405", "COUNTY": "BAY", "X": -85.65870603, "Y": 30.170614, "LONGLAT": "-85.65870603, 30.17061400", "USNG": "16R FU 29148 38450", "FACILITY_TYPE": "SHELTER", "SHELTER_TYPE": "RISK", "RPC_Region": "1", "Year_Built": "2001", "Building": "7 Cafeteria", "AS_IS_A_Retrofit_R": "R", "Generator_Type": " ", "PreMitigation_Capacity_Spaces": 0, "PreMitigation_Square_Footage": 0, "EHPA_Capacity_Gained_Spaces": 0, "EHPA_Square_Footage_Gained": 0, "Retrofit_Capacity_Gained_Spaces": 680, "Retrofit_Square_Footage_Gained": 13609, "Risk_Capacity_Spaces": 680, "Risk_Square_Footage": 13609, "Planned_Usage_Spaces": 967, "FundingSource_F_Federal_State_S": " ", "Evacuation_Zone": "No", "SURGE_ZONE": "No", "FLOOD_ZONE": "No", "EHPA": "No", "General_Pop": "Yes", "SPECIAL_NEEDS": " ", "Pet_Friendly": "Yes", "Does_not_meet_ARC_4496": " ", "Survey_Needed": " "}}, {"type": "Feature", "id": 9, "geometry": {"type": "Point", "coordinates": [-85.645856990273, 30.14689698687269]}, "properties": {"OBJECTID": 9, "Name": "Merriam-Cherry St. ES", "Address": "1125 Cherry St", "City": "Panama City", "Zip": "32401", "COUNTY": "BAY", "X": -85.64585699, "Y": 30.14689699, "LONGLAT": "-85.64585699, 30.14689699", "USNG": "16R FU 30417 35837", "FACILITY_TYPE": "SHELTER", "SHELTER_TYPE": "RISK", "RPC_Region": "1", "Year_Built": "1996", "Building": "11 Multipurpose / Cafeteria", "AS_IS_A_Retrofit_R": "A", "Generator_Type": " ", "PreMitigation_Capacity_Spaces": 0, "PreMitigation_Square_Footage": 0, "EHPA_Capacity_Gained_Spaces": 253, "EHPA_Square_Footage_Gained": 5054, "Retrofit_Capacity_Gained_Spaces": 0, "Retrofit_Square_Footage_Gained": 0, "Risk_Capacity_Spaces": 253, "Risk_Square_Footage": 5054, "Planned_Usage_Spaces": 0, "FundingSource_F_Federal_State_S": "L", "Evacuation_Zone": "C", "SURGE_ZONE": "No", "FLOOD_ZONE": "No", "EHPA": "Yes", "General_Pop": "Yes", "SPECIAL_NEEDS": " ", "Pet_Friendly": "Yes", "Does_not_meet_ARC_4496": " ", "Survey_Needed": "Yes"}}, {"type": "Feature", "id": 10, "geometry": {"type": "Point", "coordinates": [-85.5735600000451, 30.312274999483535]}, "properties": {"OBJECTID": 10, "Name": "Waller ES", "Address": "11332 Hwy 338", "City": "Youngstown", "Zip": "32466", "COUNTY": "BAY", "X": -85.57356, "Y": 30.312275, "LONGLAT": "-85.57356000, 30.31227500", "USNG": "16R FU 37151 54250", "FACILITY_TYPE": "SHELTER", "SHELTER_TYPE": "RISK", "RPC_Region": "1", "Year_Built": "1996", "Building": "3 Cafeteria", "AS_IS_A_Retrofit_R": "R", "Generator_Type": " ", "PreMitigation_Capacity_Spaces": 0, "PreMitigation_Square_Footage": 0, "EHPA_Capacity_Gained_Spaces": 0, "EHPA_Square_Footage_Gained": 0, "Retrofit_Capacity_Gained_Spaces": 82, "Retrofit_Square_Footage_Gained": 1638, "Risk_Capacity_Spaces": 82, "Risk_Square_Footage": 1638, "Planned_Usage_Spaces": 0, "FundingSource_F_Federal_State_S": "L", "Evacuation_Zone": "No", "SURGE_ZONE": "No", "FLOOD_ZONE": "No", "EHPA": "No", "General_Pop": "Yes", "SPECIAL_NEEDS": " ", "Pet_Friendly": "Yes", "Does_not_meet_ARC_4496": " ", "Survey_Needed": " "}}, {"type": "Feature", "id": 11, "geometry": {"type": "Point", "coordinates": [-85.68895470632282, 30.39417873145063]}, "properties": {"OBJECTID": 11, "Name": "Bozeman Learning Center", "Address": "13410 SR 77", "City": "Panama City", "Zip": "32409", "COUNTY": "BAY", "X": -85.68895471, "Y": 30.39417873, "LONGLAT": "-85.68895471, 30.39417873", "USNG": "16R FU 25949 63194", "FACILITY_TYPE": "SHELTER", "SHELTER_TYPE": "RISK", "RPC_Region": "1", "Year_Built": "2000", "Building": "1 Admin / Clinic", "AS_IS_A_Retrofit_R": "R", "Generator_Type": " ", "PreMitigation_Capacity_Spaces": 0, "PreMitigation_Square_Footage": 0, "EHPA_Capacity_Gained_Spaces": 0, "EHPA_Square_Footage_Gained": 0, "Retrofit_Capacity_Gained_Spaces": 267, "Retrofit_Square_Footage_Gained": 5340, "Risk_Capacity_Spaces": 267, "Risk_Square_Footage": 5340, "Planned_Usage_Spaces": 267, "FundingSource_F_Federal_State_S": " ", "Evacuation_Zone": "No", "SURGE_ZONE": "No", "FLOOD_ZONE": "No", "EHPA": "No", "General_Pop": "Yes", "SPECIAL_NEEDS": " ", "Pet_Friendly": "Yes", "Does_not_meet_ARC_4496": " ", "Survey_Needed": " "}}, {"type": "Feature", "id": 12, "geometry": {"type": "Point", "coordinates": [-85.56411398827073, 30.24187199713026]}, "properties": {"OBJECTID": 12, "Name": "Tommy Smith ES", "Address": "5044 Tommy Smith Way", "City": "Panama City", "Zip": "32404", "COUNTY": "BAY", "X": -85.56411399, "Y": 30.241872, "LONGLAT": "-85.56411399, 30.24187200", "USNG": "16R FU 38157 46459", "FACILITY_TYPE": "SHELTER", "SHELTER_TYPE": "RISK", "RPC_Region": "1", "Year_Built": "1991", "Building": "1 Classroom", "AS_IS_A_Retrofit_R": "R", "Generator_Type": " ", "PreMitigation_Capacity_Spaces": 0, "PreMitigation_Square_Footage": 0, "EHPA_Capacity_Gained_Spaces": 0, "EHPA_Square_Footage_Gained": 0, "Retrofit_Capacity_Gained_Spaces": 235, "Retrofit_Square_Footage_Gained": 4708, "Risk_Capacity_Spaces": 235, "Risk_Square_Footage": 4708, "Planned_Usage_Spaces": 0, "FundingSource_F_Federal_State_S": "HMGP", "Evacuation_Zone": "No", "SURGE_ZONE": "No", "FLOOD_ZONE": "No", "EHPA": "No", "General_Pop": "Yes", "SPECIAL_NEEDS": " ", "Pet_Friendly": "Yes", "Does_not_meet_ARC_4496": " ", "Survey_Needed": " "}}, {"type": "Feature", "id": 13, "geometry": {"type": "Point", "coordinates": [-85.69123300995655, 30.170703016980237]}, "properties": {"OBJECTID": 13, "Name": "Oakland Terrace ES", "Address": "2010 W 12th St", "City": "Panama City", "Zip": "32401", "COUNTY": "BAY", "X": -85.69123301, "Y": 30.17070302, "LONGLAT": "-85.69123301, 30.17070302", "USNG": "16R FU 26016 38424", "FACILITY_TYPE": "SHELTER", "SHELTER_TYPE": "RISK", "RPC_Region": "1", "Year_Built": "2000", "Building": "13 Classroom", "AS_IS_A_Retrofit_R": "R", "Generator_Type": " ", "PreMitigation_Capacity_Spaces": 0, "PreMitigation_Square_Footage": 0, "EHPA_Capacity_Gained_Spaces": 0, "EHPA_Square_Footage_Gained": 0, "Retrofit_Capacity_Gained_Spaces": 224, "Retrofit_Square_Footage_Gained": 3365, "Risk_Capacity_Spaces": 168, "Risk_Square_Footage": 3365, "Planned_Usage_Spaces": 294, "FundingSource_F_Federal_State_S": "HMGP", "Evacuation_Zone": "No", "SURGE_ZONE": "No", "FLOOD_ZONE": "No", "EHPA": "No", "General_Pop": "Yes", "SPECIAL_NEEDS": " ", "Pet_Friendly": "Yes", "Does_not_meet_ARC_4496": " ", "Survey_Needed": " "}}, {"type": "Feature", "id": 14, "geometry": {"type": "Point", "coordinates": [-85.60051399528753, 30.135599020148646]}, "properties": {"OBJECTID": 14, "Name": "Parker ES", "Address": "640 S Hwy 22A", "City": "Panama City", "Zip": "32404", "COUNTY": "BAY", "X": -85.600514, "Y": 30.13559902, "LONGLAT": "-85.60051400, 30.13559902", "USNG": "16R FU 34800 34637", "FACILITY_TYPE": "SHELTER", "SHELTER_TYPE": "RISK", "RPC_Region": "1", "Year_Built": "2007", "Building": "2 Multipurpose", "AS_IS_A_Retrofit_R": "A", "Generator_Type": " ", "PreMitigation_Capacity_Spaces": 0, "PreMitigation_Square_Footage": 0, "EHPA_Capacity_Gained_Spaces": 180, "EHPA_Square_Footage_Gained": 3600, "Retrofit_Capacity_Gained_Spaces": 0, "Retrofit_Square_Footage_Gained": 0, "Risk_Capacity_Spaces": 180, "Risk_Square_Footage": 3600, "Planned_Usage_Spaces": 0, "FundingSource_F_Federal_State_S": "L", "Evacuation_Zone": "No", "SURGE_ZONE": "No", "FLOOD_ZONE": "No", "EHPA": "Yes", "General_Pop": "Yes", "SPECIAL_NEEDS": " ", "Pet_Friendly": "Yes", "Does_not_meet_ARC_4496": " ", "Survey_Needed": "Yes"}}, {"type": "Feature", "id": 15, "geometry": {"type": "Point", "coordinates": [-85.6211619760786, 30.17427002001013]}, "properties": {"OBJECTID": 15, "Name": "Cedar Grove ES", "Address": "2826 East 15th St", "City": "Panama City", "Zip": "32405", "COUNTY": "BAY", "X": -85.62116198, "Y": 30.17427002, "LONGLAT": "-85.62116198, 30.17427002", "USNG": "16R FU 32759 38899", "FACILITY_TYPE": "SHELTER", "SHELTER_TYPE": "RISK", "RPC_Region": "1", "Year_Built": "1999", "Building": "12 Classroom", "AS_IS_A_Retrofit_R": "R", "Generator_Type": " ", "PreMitigation_Capacity_Spaces": 0, "PreMitigation_Square_Footage": 0, "EHPA_Capacity_Gained_Spaces": 0, "EHPA_Square_Footage_Gained": 0, "Retrofit_Capacity_Gained_Spaces": 306, "Retrofit_Square_Footage_Gained": 4865, "Risk_Capacity_Spaces": 243, "Risk_Square_Footage": 4865, "Planned_Usage_Spaces": 306, "FundingSource_F_Federal_State_S": "HMGP", "Evacuation_Zone": "No", "SURGE_ZONE": "No", "FLOOD_ZONE": "No", "EHPA": "No", "General_Pop": "Yes", "SPECIAL_NEEDS": " ", "Pet_Friendly": "Yes", "Does_not_meet_ARC_4496": " ", "Survey_Needed": " "}}, {"type": "Feature", "id": 16, "geometry": {"type": "Point", "coordinates": [-85.70702904163672, 30.183323983899662]}, "properties": {"OBJECTID": 16, "Name": "Moore ES", "Address": "1900 Michigan Ave", "City": "Panama City", "Zip": "32405", "COUNTY": "BAY", "X": -85.70702904, "Y": 30.18332398, "LONGLAT": "-85.70702904, 30.18332398", "USNG": "16R FU 24479 39805", "FACILITY_TYPE": "SHELTER", "SHELTER_TYPE": "RISK", "RPC_Region": "1", "Year_Built": "1996", "Building": "3 Cafeteria (11)", "AS_IS_A_Retrofit_R": "R", "Generator_Type": " ", "PreMitigation_Capacity_Spaces": 0, "PreMitigation_Square_Footage": 0, "EHPA_Capacity_Gained_Spaces": 0, "EHPA_Square_Footage_Gained": 0, "Retrofit_Capacity_Gained_Spaces": 483, "Retrofit_Square_Footage_Gained": 9661, "Risk_Capacity_Spaces": 483, "Risk_Square_Footage": 9661, "Planned_Usage_Spaces": 0, "FundingSource_F_Federal_State_S": "HMGP", "Evacuation_Zone": "D", "SURGE_ZONE": "5", "FLOOD_ZONE": "No", "EHPA": "No", "General_Pop": "Yes", "SPECIAL_NEEDS": " ", "Pet_Friendly": "Yes", "Does_not_meet_ARC_4496": " ", "Survey_Needed": " "}}, {"type": "Feature", "id": 17, "geometry": {"type": "Point", "coordinates": [-85.68895470632282, 30.39417873145063]}, "properties": {"OBJECTID": 17, "Name": "Bozeman Learning Center", "Address": "13410 SR 77", "City": "Panama City", "Zip": "32409", "COUNTY": "BAY", "X": -85.68895471, "Y": 30.39417873, "LONGLAT": "-85.68895471, 30.39417873", "USNG": "16R FU 25949 63194", "FACILITY_TYPE": "SHELTER", "SHELTER_TYPE": "RISK", "RPC_Region": "1", "Year_Built": "2000", "Building": "3 Classroom", "AS_IS_A_Retrofit_R": "R", "Generator_Type": " ", "PreMitigation_Capacity_Spaces": 0, "PreMitigation_Square_Footage": 0, "EHPA_Capacity_Gained_Spaces": 0, "EHPA_Square_Footage_Gained": 0, "Retrofit_Capacity_Gained_Spaces": 526, "Retrofit_Square_Footage_Gained": 7894, "Risk_Capacity_Spaces": 395, "Risk_Square_Footage": 7894, "Planned_Usage_Spaces": 641, "FundingSource_F_Federal_State_S": " ", "Evacuation_Zone": "No", "SURGE_ZONE": "No", "FLOOD_ZONE": "No", "EHPA": "No", "General_Pop": "Yes", "SPECIAL_NEEDS": " ", "Pet_Friendly": "Yes", "Does_not_meet_ARC_4496": " ", "Survey_Needed": " "}}, {"type": "Feature", "id": 18, "geometry": {"type": "Point", "coordinates": [-85.56411398827073, 30.24187199713026]}, "properties": {"OBJECTID": 18, "Name": "Tommy Smith ES", "Address": "5044 Tommy Smith Way", "City": "Panama City", "Zip": "32404", "COUNTY": "BAY", "X": -85.56411399, "Y": 30.241872, "LONGLAT": "-85.56411399, 30.24187200", "USNG": "16R FU 38157 46459", "FACILITY_TYPE": "SHELTER", "SHELTER_TYPE": "RISK", "RPC_Region": "1", "Year_Built": "1991", "Building": "4 Classroom", "AS_IS_A_Retrofit_R": "R", "Generator_Type": " ", "PreMitigation_Capacity_Spaces": 0, "PreMitigation_Square_Footage": 0, "EHPA_Capacity_Gained_Spaces": 0, "EHPA_Square_Footage_Gained": 0, "Retrofit_Capacity_Gained_Spaces": 438, "Retrofit_Square_Footage_Gained": 8764, "Risk_Capacity_Spaces": 438, "Risk_Square_Footage": 8764, "Planned_Usage_Spaces": 0, "FundingSource_F_Federal_State_S": "HMGP", "Evacuation_Zone": "No", "SURGE_ZONE": "No", "FLOOD_ZONE": "No", "EHPA": "No", "General_Pop": "Yes", "SPECIAL_NEEDS": " ", "Pet_Friendly": "Yes", "Does_not_meet_ARC_4496": " ", "Survey_Needed": " "}}, {"type": "Feature", "id": 19, "geometry": {"type": "Point", "coordinates": [-85.68895470632282, 30.39417873145063]}, "properties": {"OBJECTID": 19, "Name": "Bozeman Learning Center", "Address": "13410 SR 77", "City": "Panama City", "Zip": "32409", "COUNTY": "BAY", "X": -85.68895471, "Y": 30.39417873, "LONGLAT": "-85.68895471, 30.39417873", "USNG": "16R FU 25949 63194", "FACILITY_TYPE": "SHELTER", "SHELTER_TYPE": "RISK", "RPC_Region": "1", "Year_Built": "2000", "Building": "9 Cafeteria", "AS_IS_A_Retrofit_R": "A", "Generator_Type": "HW 600KW", "PreMitigation_Capacity_Spaces": 0, "PreMitigation_Square_Footage": 0, "EHPA_Capacity_Gained_Spaces": 110, "EHPA_Square_Footage_Gained": 8277, "Retrofit_Capacity_Gained_Spaces": 0, "Retrofit_Square_Footage_Gained": 0, "Risk_Capacity_Spaces": 138, "Risk_Square_Footage": 8277, "Planned_Usage_Spaces": 108, "FundingSource_F_Federal_State_S": "EHPA", "Evacuation_Zone": "No", "SURGE_ZONE": "No", "FLOOD_ZONE": "No", "EHPA": "Yes", "General_Pop": " ", "SPECIAL_NEEDS": "Yes", "Pet_Friendly": "Yes", "Does_not_meet_ARC_4496": " ", "Survey_Needed": " "}}, {"type": "Feature", "id": 20, "geometry": {"type": "Point", "coordinates": [-85.63851796412845, 30.166553011445195]}, "properties": {"OBJECTID": 20, "Name": "Pattersen ES", "Address": "1025 Redwood Ave", "City": "Panama City", "Zip": "32401", "COUNTY": "BAY", "X": -85.63851796, "Y": 30.16655301, "LONGLAT": "-85.63851796, 30.16655301", "USNG": "16R FU 31098 38023", "FACILITY_TYPE": "SHELTER", "SHELTER_TYPE": "RISK", "RPC_Region": "1", "Year_Built": "2000", "Building": "16 Classroom", "AS_IS_A_Retrofit_R": "R", "Generator_Type": " ", "PreMitigation_Capacity_Spaces": 0, "PreMitigation_Square_Footage": 0, "EHPA_Capacity_Gained_Spaces": 0, "EHPA_Square_Footage_Gained": 0, "Retrofit_Capacity_Gained_Spaces": 265, "Retrofit_Square_Footage_Gained": 5294, "Risk_Capacity_Spaces": 265, "Risk_Square_Footage": 5294, "Planned_Usage_Spaces": 0, "FundingSource_F_Federal_State_S": "F-HB7121", "Evacuation_Zone": "No", "SURGE_ZONE": "No", "FLOOD_ZONE": "No", "EHPA": "No", "General_Pop": "Yes", "SPECIAL_NEEDS": " ", "Pet_Friendly": "Yes", "Does_not_meet_ARC_4496": " ", "Survey_Needed": " "}}, {"type": "Feature", "id": 21, "geometry": {"type": "Point", "coordinates": [-85.68895470632282, 30.39417873145063]}, "properties": {"OBJECTID": 21, "Name": "Bozeman Learning Center", "Address": "13410 SR 77", "City": "Panama City", "Zip": "32409", "COUNTY": "BAY", "X": -85.68895471, "Y": 30.39417873, "LONGLAT": "-85.68895471, 30.39417873", "USNG": "16R FU 25949 63194", "FACILITY_TYPE": "SHELTER", "SHELTER_TYPE": "RISK", "RPC_Region": "1", "Year_Built": "2000", "Building": "4 Classroom", "AS_IS_A_Retrofit_R": "R", "Generator_Type": " ", "PreMitigation_Capacity_Spaces": 0, "PreMitigation_Square_Footage": 0, "EHPA_Capacity_Gained_Spaces": 0, "EHPA_Square_Footage_Gained": 0, "Retrofit_Capacity_Gained_Spaces": 580, "Retrofit_Square_Footage_Gained": 9401, "Risk_Capacity_Spaces": 470, "Risk_Square_Footage": 9401, "Planned_Usage_Spaces": 580, "FundingSource_F_Federal_State_S": "HMGP", "Evacuation_Zone": "No", "SURGE_ZONE": "No", "FLOOD_ZONE": "No", "EHPA": "No", "General_Pop": "Yes", "SPECIAL_NEEDS": " ", "Pet_Friendly": "Yes", "Does_not_meet_ARC_4496": " ", "Survey_Needed": " "}}, {"type": "Feature", "id": 22, "geometry": {"type": "Point", "coordinates": [-85.66797901193353, 30.168730001173138]}, "properties": {"OBJECTID": 22, "Name": "Jinks MS", "Address": "600 W 11th St", "City": "Panama City", "Zip": "32401", "COUNTY": "BAY", "X": -85.66797901, "Y": 30.16873, "LONGLAT": "-85.66797901, 30.16873000", "USNG": "16R FU 28258 38231", "FACILITY_TYPE": "SHELTER", "SHELTER_TYPE": "RISK", "RPC_Region": "1", "Year_Built": "2003", "Building": "10 Cafeteria", "AS_IS_A_Retrofit_R": "R", "Generator_Type": " ", "PreMitigation_Capacity_Spaces": 0, "PreMitigation_Square_Footage": 0, "EHPA_Capacity_Gained_Spaces": 0, "EHPA_Square_Footage_Gained": 0, "Retrofit_Capacity_Gained_Spaces": 76, "Retrofit_Square_Footage_Gained": 1836, "Risk_Capacity_Spaces": 92, "Risk_Square_Footage": 1836, "Planned_Usage_Spaces": 76, "FundingSource_F_Federal_State_S": "HMGP", "Evacuation_Zone": "No", "SURGE_ZONE": "No", "FLOOD_ZONE": "No", "EHPA": "No", "General_Pop": "Yes", "SPECIAL_NEEDS": " ", "Pet_Friendly": "Yes", "Does_not_meet_ARC_4496": " ", "Survey_Needed": " "}}, {"type": "Feature", "id": 23, "geometry": {"type": "Point", "coordinates": [-85.65079200334425, 30.210480009087053]}, "properties": {"OBJECTID": 23, "Name": "Bay County Sheriff Office", "Address": "3421 Highway 77", "City": "Panama City", "Zip": "32404", "COUNTY": "BAY", "X": -85.650792, "Y": 30.21048001, "LONGLAT": "-85.65079200, 30.21048001", "USNG": "16R FU 29858 42878", "FACILITY_TYPE": "SHELTER", "SHELTER_TYPE": "RISK", "RPC_Region": "1", "Year_Built": "1994", "Building": "1 Main", "AS_IS_A_Retrofit_R": "R", "Generator_Type": " ", "PreMitigation_Capacity_Spaces": 0, "PreMitigation_Square_Footage": 0, "EHPA_Capacity_Gained_Spaces": 0, "EHPA_Square_Footage_Gained": 0, "Retrofit_Capacity_Gained_Spaces": 494, "Retrofit_Square_Footage_Gained": 9880, "Risk_Capacity_Spaces": 494, "Risk_Square_Footage": 9880, "Planned_Usage_Spaces": 494, "FundingSource_F_Federal_State_S": "S FY 11-12 1515A", "Evacuation_Zone": "No", "SURGE_ZONE": "No", "FLOOD_ZONE": "No", "EHPA": "No", "General_Pop": "Yes", "SPECIAL_NEEDS": " ", "Pet_Friendly": "Yes", "Does_not_meet_ARC_4496": " ", "Survey_Needed": " "}}, {"type": "Feature", "id": 24, "geometry": {"type": "Point", "coordinates": [-85.56317596967895, 30.24219998091043]}, "properties": {"OBJECTID": 24, "Name": "Merritt Brown MS", "Address": "5601 Merritt Brown Rd", "City": "Panama City", "Zip": "32404", "COUNTY": "BAY", "X": -85.56317597, "Y": 30.24219998, "LONGLAT": "-85.56317597, 30.24219998", "USNG": "16R FU 38247 46496", "FACILITY_TYPE": "SHELTER", "SHELTER_TYPE": "RISK", "RPC_Region": "1", "Year_Built": "1988", "Building": "4 Classroom 1st Floor", "AS_IS_A_Retrofit_R": "R", "Generator_Type": " ", "PreMitigation_Capacity_Spaces": 0, "PreMitigation_Square_Footage": 0, "EHPA_Capacity_Gained_Spaces": 0, "EHPA_Square_Footage_Gained": 0, "Retrofit_Capacity_Gained_Spaces": 877, "Retrofit_Square_Footage_Gained": 17538, "Risk_Capacity_Spaces": 877, "Risk_Square_Footage": 17538, "Planned_Usage_Spaces": 0, "FundingSource_F_Federal_State_S": "HMGP", "Evacuation_Zone": "No", "SURGE_ZONE": "No", "FLOOD_ZONE": "No", "EHPA": "No", "General_Pop": "Yes", "SPECIAL_NEEDS": " ", "Pet_Friendly": "Yes", "Does_not_meet_ARC_4496": " ", "Survey_Needed": " "}}, {"type": "Feature", "id": 25, "geometry": {"type": "Point", "coordinates": [-85.5735600000451, 30.312274999483535]}, "properties": {"OBJECTID": 25, "Name": "Waller ES", "Address": "11332 Hwy 338", "City": "Youngstown", "Zip": "32466", "COUNTY": "BAY", "X": -85.57356, "Y": 30.312275, "LONGLAT": "-85.57356000, 30.31227500", "USNG": "16R FU 37151 54250", "FACILITY_TYPE": "SHELTER", "SHELTER_TYPE": "RISK", "RPC_Region": "1", "Year_Built": "1998", "Building": "4 Classroom", "AS_IS_A_Retrofit_R": "R", "Generator_Type": " ", "PreMitigation_Capacity_Spaces": 0, "PreMitigation_Square_Footage": 0, "EHPA_Capacity_Gained_Spaces": 0, "EHPA_Square_Footage_Gained": 0, "Retrofit_Capacity_Gained_Spaces": 207, "Retrofit_Square_Footage_Gained": 4141, "Risk_Capacity_Spaces": 207, "Risk_Square_Footage": 4141, "Planned_Usage_Spaces": 0, "FundingSource_F_Federal_State_S": "L", "Evacuation_Zone": "No", "SURGE_ZONE": "No", "FLOOD_ZONE": "No", "EHPA": "No", "General_Pop": "Yes", "SPECIAL_NEEDS": " ", "Pet_Friendly": "Yes", "Does_not_meet_ARC_4496": " ", "Survey_Needed": " "}}, {"type": "Feature", "id": 26, "geometry": {"type": "Point", "coordinates": [-85.6558460403716, 30.22849800021268]}, "properties": {"OBJECTID": 26, "Name": "Mowat MS", "Address": "1903 Hwy 390", "City": "Lynn Haven", "Zip": "33444", "COUNTY": "BAY", "X": -85.65584604, "Y": 30.228498, "LONGLAT": "-85.65584604, 30.22849800", "USNG": "16R FU 29348 44869", "FACILITY_TYPE": "SHELTER", "SHELTER_TYPE": "RISK", "RPC_Region": "1", "Year_Built": "2000", "Building": "11 Classroom", "AS_IS_A_Retrofit_R": "R", "Generator_Type": " ", "PreMitigation_Capacity_Spaces": 0, "PreMitigation_Square_Footage": 0, "EHPA_Capacity_Gained_Spaces": 0, "EHPA_Square_Footage_Gained": 0, "Retrofit_Capacity_Gained_Spaces": 139, "Retrofit_Square_Footage_Gained": 2782, "Risk_Capacity_Spaces": 139, "Risk_Square_Footage": 2782, "Planned_Usage_Spaces": 139, "FundingSource_F_Federal_State_S": "HMGP", "Evacuation_Zone": "No", "SURGE_ZONE": "No", "FLOOD_ZONE": "No", "EHPA": "No", "General_Pop": "Yes", "SPECIAL_NEEDS": " ", "Pet_Friendly": "Yes", "Does_not_meet_ARC_4496": " ", "Survey_Needed": " "}}, {"type": "Feature", "id": 27, "geometry": {"type": "Point", "coordinates": [-85.61524301089, 30.166080984193158]}, "properties": {"OBJECTID": 27, "Name": "Rutherford HS", "Address": "1000 School Ave", "City": "Panama City", "Zip": "32401", "COUNTY": "BAY", "X": -85.61524301, "Y": 30.16608099, "LONGLAT": "-85.61524301, 30.16608099", "USNG": "16R FU 33340 37998", "FACILITY_TYPE": "SHELTER", "SHELTER_TYPE": "RISK", "RPC_Region": "1", "Year_Built": "1995", "Building": "2  Media / Classroom 1st Floor", "AS_IS_A_Retrofit_R": "R", "Generator_Type": " ", "PreMitigation_Capacity_Spaces": 0, "PreMitigation_Square_Footage": 0, "EHPA_Capacity_Gained_Spaces": 0, "EHPA_Square_Footage_Gained": 0, "Retrofit_Capacity_Gained_Spaces": 237, "Retrofit_Square_Footage_Gained": 4740, "Risk_Capacity_Spaces": 237, "Risk_Square_Footage": 4740, "Planned_Usage_Spaces": 237, "FundingSource_F_Federal_State_S": "HMGP", "Evacuation_Zone": "No", "SURGE_ZONE": "No", "FLOOD_ZONE": "No", "EHPA": "No", "General_Pop": "Yes", "SPECIAL_NEEDS": " ", "Pet_Friendly": "Yes", "Does_not_meet_ARC_4496": " ", "Survey_Needed": " "}}, {"type": "Feature", "id": 28, "geometry": {"type": "Point", "coordinates": [-85.68895470632282, 30.39417873145063]}, "properties": {"OBJECTID": 28, "Name": "Bozeman Learning Center", "Address": "13410 SR 77", "City": "Panama City", "Zip": "32409", "COUNTY": "BAY", "X": -85.68895471, "Y": 30.39417873, "LONGLAT": "-85.68895471, 30.39417873", "USNG": "16R FU 25949 63194", "FACILITY_TYPE": "SHELTER", "SHELTER_TYPE": "RISK", "RPC_Region": "1", "Year_Built": "2000", "Building": "6 Music", "AS_IS_A_Retrofit_R": "R", "Generator_Type": " ", "PreMitigation_Capacity_Spaces": 0, "PreMitigation_Square_Footage": 0, "EHPA_Capacity_Gained_Spaces": 0, "EHPA_Square_Footage_Gained": 0, "Retrofit_Capacity_Gained_Spaces": 319, "Retrofit_Square_Footage_Gained": 4791, "Risk_Capacity_Spaces": 240, "Risk_Square_Footage": 4791, "Planned_Usage_Spaces": 604, "FundingSource_F_Federal_State_S": "HMGP", "Evacuation_Zone": "No", "SURGE_ZONE": "No", "FLOOD_ZONE": "No", "EHPA": "No", "General_Pop": "Yes", "SPECIAL_NEEDS": " ", "Pet_Friendly": "Yes", "Does_not_meet_ARC_4496": " ", "Survey_Needed": " "}}, {"type": "Feature", "id": 29, "geometry": {"type": "Point", "coordinates": [-85.68895470632282, 30.39417873145063]}, "properties": {"OBJECTID": 29, "Name": "Bozeman Learning Center", "Address": "13410 SR 77", "City": "Panama City", "Zip": "32409", "COUNTY": "BAY", "X": -85.68895471, "Y": 30.39417873, "LONGLAT": "-85.68895471, 30.39417873", "USNG": "16R FU 25949 63194", "FACILITY_TYPE": "SHELTER", "SHELTER_TYPE": "RISK", "RPC_Region": "1", "Year_Built": "2000", "Building": "7 Classroom", "AS_IS_A_Retrofit_R": "R", "Generator_Type": " ", "PreMitigation_Capacity_Spaces": 0, "PreMitigation_Square_Footage": 0, "EHPA_Capacity_Gained_Spaces": 0, "EHPA_Square_Footage_Gained": 0, "Retrofit_Capacity_Gained_Spaces": 510, "Retrofit_Square_Footage_Gained": 7647, "Risk_Capacity_Spaces": 382, "Risk_Square_Footage": 7647, "Planned_Usage_Spaces": 826, "FundingSource_F_Federal_State_S": "L", "Evacuation_Zone": "No", "SURGE_ZONE": "No", "FLOOD_ZONE": "No", "EHPA": "No", "General_Pop": "Yes", "SPECIAL_NEEDS": " ", "Pet_Friendly": "Yes", "Does_not_meet_ARC_4496": " ", "Survey_Needed": " "}}, {"type": "Feature", "id": 30, "geometry": {"type": "Point", "coordinates": [-85.44058895922714, 30.36635101239594]}, "properties": {"OBJECTID": 30, "Name": "Waller ES", "Address": "11332 Highway 388", "City": "Fountain", "Zip": "32466", "COUNTY": "BAY", "X": -85.44058896, "Y": 30.36635101, "LONGLAT": "-85.44058896, 30.36635101", "USNG": "16R FU 49855 60412", "FACILITY_TYPE": "SHELTER", "SHELTER_TYPE": "RISK", "RPC_Region": "1", "Year_Built": "2000", "Building": "5 Classroom", "AS_IS_A_Retrofit_R": "R", "Generator_Type": " ", "PreMitigation_Capacity_Spaces": 0, "PreMitigation_Square_Footage": 0, "EHPA_Capacity_Gained_Spaces": 0, "EHPA_Square_Footage_Gained": 0, "Retrofit_Capacity_Gained_Spaces": 288, "Retrofit_Square_Footage_Gained": 5757, "Risk_Capacity_Spaces": 288, "Risk_Square_Footage": 5757, "Planned_Usage_Spaces": 0, "FundingSource_F_Federal_State_S": "F-HB7121", "Evacuation_Zone": "No", "SURGE_ZONE": "No", "FLOOD_ZONE": "No", "EHPA": "No", "General_Pop": "Yes", "SPECIAL_NEEDS": " ", "Pet_Friendly": "Yes", "Does_not_meet_ARC_4496": " ", "Survey_Needed": " "}}, {"type": "Feature", "id": 31, "geometry": {"type": "Point", "coordinates": [-85.70702904163672, 30.183323983899662]}, "properties": {"OBJECTID": 31, "Name": "Moore ES", "Address": "1900 Michigan Ave", "City": "Panama City", "Zip": "32405", "COUNTY": "BAY", "X": -85.70702904, "Y": 30.18332398, "LONGLAT": "-85.70702904, 30.18332398", "USNG": "16R FU 24479 39805", "FACILITY_TYPE": "SHELTER", "SHELTER_TYPE": "RISK", "RPC_Region": "1", "Year_Built": "1996", "Building": "2 Classroom (10)", "AS_IS_A_Retrofit_R": "R", "Generator_Type": " ", "PreMitigation_Capacity_Spaces": 0, "PreMitigation_Square_Footage": 0, "EHPA_Capacity_Gained_Spaces": 0, "EHPA_Square_Footage_Gained": 0, "Retrofit_Capacity_Gained_Spaces": 168, "Retrofit_Square_Footage_Gained": 3357, "Risk_Capacity_Spaces": 168, "Risk_Square_Footage": 3357, "Planned_Usage_Spaces": 0, "FundingSource_F_Federal_State_S": "HMGP", "Evacuation_Zone": "D", "SURGE_ZONE": "5", "FLOOD_ZONE": "No", "EHPA": "No", "General_Pop": "Yes", "SPECIAL_NEEDS": " ", "Pet_Friendly": "Yes", "Does_not_meet_ARC_4496": " ", "Survey_Needed": " "}}, {"type": "Feature", "id": 32, "geometry": {"type": "Point", "coordinates": [-85.61524301089, 30.166080984193158]}, "properties": {"OBJECTID": 32, "Name": "Rutherford HS", "Address": "1000 School Ave", "City": "Springfield", "Zip": "32401", "COUNTY": "BAY", "X": -85.61524301, "Y": 30.16608099, "LONGLAT": "-85.61524301, 30.16608099", "USNG": "16R FU 33340 37998", "FACILITY_TYPE": "SHELTER", "SHELTER_TYPE": "RISK", "RPC_Region": "1", "Year_Built": "1986", "Building": "13 Cafeteria", "AS_IS_A_Retrofit_R": "R", "Generator_Type": " ", "PreMitigation_Capacity_Spaces": 0, "PreMitigation_Square_Footage": 0, "EHPA_Capacity_Gained_Spaces": 0, "EHPA_Square_Footage_Gained": 0, "Retrofit_Capacity_Gained_Spaces": 552, "Retrofit_Square_Footage_Gained": 11031, "Risk_Capacity_Spaces": 552, "Risk_Square_Footage": 11031, "Planned_Usage_Spaces": 0, "FundingSource_F_Federal_State_S": "F-HB7121", "Evacuation_Zone": "No", "SURGE_ZONE": "No", "FLOOD_ZONE": "No", "EHPA": "No", "General_Pop": "Yes", "SPECIAL_NEEDS": " ", "Pet_Friendly": "Yes", "Does_not_meet_ARC_4496": " ", "Survey_Needed": " "}}, {"type": "Feature", "id": 33, "geometry": {"type": "Point", "coordinates": [-85.68895470632282, 30.39417873145063]}, "properties": {"OBJECTID": 33, "Name": "Bozeman Learning Center", "Address": "13410 SR 77", "City": "Panama City", "Zip": "32409", "COUNTY": "BAY", "X": -85.68895471, "Y": 30.39417873, "LONGLAT": "-85.68895471, 30.39417873", "USNG": "16R FU 25949 63194", "FACILITY_TYPE": "SHELTER", "SHELTER_TYPE": "RISK", "RPC_Region": "1", "Year_Built": "2000", "Building": "2 Classroom", "AS_IS_A_Retrofit_R": "R", "Generator_Type": " ", "PreMitigation_Capacity_Spaces": 0, "PreMitigation_Square_Footage": 0, "EHPA_Capacity_Gained_Spaces": 0, "EHPA_Square_Footage_Gained": 0, "Retrofit_Capacity_Gained_Spaces": 436, "Retrofit_Square_Footage_Gained": 6541, "Risk_Capacity_Spaces": 327, "Risk_Square_Footage": 6541, "Planned_Usage_Spaces": 587, "FundingSource_F_Federal_State_S": "HMGP", "Evacuation_Zone": "No", "SURGE_ZONE": "No", "FLOOD_ZONE": "No", "EHPA": "No", "General_Pop": "Yes", "SPECIAL_NEEDS": " ", "Pet_Friendly": "Yes", "Does_not_meet_ARC_4496": " ", "Survey_Needed": " "}}, {"type": "Feature", "id": 34, "geometry": {"type": "Point", "coordinates": [-85.68895470632282, 30.39417873145063]}, "properties": {"OBJECTID": 34, "Name": "Bozeman Learning Center", "Address": "13410 SR 77", "City": "Panama City", "Zip": "32409", "COUNTY": "BAY", "X": -85.68895471, "Y": 30.39417873, "LONGLAT": "-85.68895471, 30.39417873", "USNG": "16R FU 25949 63194", "FACILITY_TYPE": "SHELTER", "SHELTER_TYPE": "RISK", "RPC_Region": "1", "Year_Built": "2000", "Building": "8 Gym", "AS_IS_A_Retrofit_R": "A", "Generator_Type": "HW 600KW", "PreMitigation_Capacity_Spaces": 0, "PreMitigation_Square_Footage": 0, "EHPA_Capacity_Gained_Spaces": 191, "EHPA_Square_Footage_Gained": 11466, "Retrofit_Capacity_Gained_Spaces": 0, "Retrofit_Square_Footage_Gained": 0, "Risk_Capacity_Spaces": 191, "Risk_Square_Footage": 11466, "Planned_Usage_Spaces": 0, "FundingSource_F_Federal_State_S": "HMGP / EHPA", "Evacuation_Zone": "No", "SURGE_ZONE": "No", "FLOOD_ZONE": "No", "EHPA": "Yes", "General_Pop": " ", "SPECIAL_NEEDS": "Yes", "Pet_Friendly": "Yes", "Does_not_meet_ARC_4496": " ", "Survey_Needed": " "}}, {"type": "Feature", "id": 35, "geometry": {"type": "Point", "coordinates": [-85.70702904163672, 30.183323983899662]}, "properties": {"OBJECTID": 35, "Name": "Moore ES", "Address": "1900 Michigan Ave", "City": "Panama City", "Zip": "32405", "COUNTY": "BAY", "X": -85.70702904, "Y": 30.18332398, "LONGLAT": "-85.70702904, 30.18332398", "USNG": "16R FU 24479 39805", "FACILITY_TYPE": "SHELTER", "SHELTER_TYPE": "RISK", "RPC_Region": "1", "Year_Built": "1996", "Building": "4 Classroom (12)", "AS_IS_A_Retrofit_R": "R", "Generator_Type": " ", "PreMitigation_Capacity_Spaces": 0, "PreMitigation_Square_Footage": 0, "EHPA_Capacity_Gained_Spaces": 0, "EHPA_Square_Footage_Gained": 0, "Retrofit_Capacity_Gained_Spaces": 393, "Retrofit_Square_Footage_Gained": 7862, "Risk_Capacity_Spaces": 393, "Risk_Square_Footage": 7862, "Planned_Usage_Spaces": 0, "FundingSource_F_Federal_State_S": "HMGP", "Evacuation_Zone": "D", "SURGE_ZONE": "5", "FLOOD_ZONE": "No", "EHPA": "No", "General_Pop": "Yes", "SPECIAL_NEEDS": " ", "Pet_Friendly": "Yes", "Does_not_meet_ARC_4496": " ", "Survey_Needed": " "}}, {"type": "Feature", "id": 36, "geometry": {"type": "Point", "coordinates": [-85.6211619760786, 30.17427002001013]}, "properties": {"OBJECTID": 36, "Name": "Cedar Grove ES", "Address": "2826 East 15th St", "City": "Panama City", "Zip": "32405", "COUNTY": "BAY", "X": -85.62116198, "Y": 30.17427002, "LONGLAT": "-85.62116198, 30.17427002", "USNG": "16R FU 32759 38899", "FACILITY_TYPE": "SHELTER", "SHELTER_TYPE": "RISK", "RPC_Region": "1", "Year_Built": "1999", "Building": "13 Music", "AS_IS_A_Retrofit_R": "R", "Generator_Type": " ", "PreMitigation_Capacity_Spaces": 0, "PreMitigation_Square_Footage": 0, "EHPA_Capacity_Gained_Spaces": 0, "EHPA_Square_Footage_Gained": 0, "Retrofit_Capacity_Gained_Spaces": 142, "Retrofit_Square_Footage_Gained": 2137, "Risk_Capacity_Spaces": 107, "Risk_Square_Footage": 2137, "Planned_Usage_Spaces": 206, "FundingSource_F_Federal_State_S": "HMGP", "Evacuation_Zone": "No", "SURGE_ZONE": "No", "FLOOD_ZONE": "No", "EHPA": "No", "General_Pop": "Yes", "SPECIAL_NEEDS": " ", "Pet_Friendly": "Yes", "Does_not_meet_ARC_4496": " ", "Survey_Needed": " "}}, {"type": "Feature", "id": 37, "geometry": {"type": "Point", "coordinates": [-85.69123300995655, 30.170703016980237]}, "properties": {"OBJECTID": 37, "Name": "Oakland Terrace ES", "Address": "2010 W 12th St", "City": "Panama City", "Zip": "32401", "COUNTY": "BAY", "X": -85.69123301, "Y": 30.17070302, "LONGLAT": "-85.69123301, 30.17070302", "USNG": "16R FU 26016 38424", "FACILITY_TYPE": "SHELTER", "SHELTER_TYPE": "RISK", "RPC_Region": "1", "Year_Built": "1986", "Building": "14 Classroom", "AS_IS_A_Retrofit_R": "R", "Generator_Type": " ", "PreMitigation_Capacity_Spaces": 0, "PreMitigation_Square_Footage": 0, "EHPA_Capacity_Gained_Spaces": 0, "EHPA_Square_Footage_Gained": 0, "Retrofit_Capacity_Gained_Spaces": 258, "Retrofit_Square_Footage_Gained": 4159, "Risk_Capacity_Spaces": 208, "Risk_Square_Footage": 4159, "Planned_Usage_Spaces": 258, "FundingSource_F_Federal_State_S": "HMGP", "Evacuation_Zone": "No", "SURGE_ZONE": "No", "FLOOD_ZONE": "No", "EHPA": "No", "General_Pop": "Yes", "SPECIAL_NEEDS": " ", "Pet_Friendly": "Yes", "Does_not_meet_ARC_4496": " ", "Survey_Needed": " "}}, {"type": "Feature", "id": 53, "geometry": {"type": "Point", "coordinates": [-87.36242901862755, 30.740428981160008]}, "properties": {"OBJECTID": 53, "Name": "Molino Park ES", "Address": "899 Hwy 97", "City": "Molino", "Zip": "32577", "COUNTY": "ESCAMBIA", "X": -87.36242902, "Y": 30.74042898, "LONGLAT": "-87.36242902, 30.74042898", "USNG": "16R DV 65306 00891", "FACILITY_TYPE": "SHELTER", "SHELTER_TYPE": "RISK", "RPC_Region": "1", "Year_Built": "2002", "Building": "4 Classroom", "AS_IS_A_Retrofit_R": "R", "Generator_Type": " ", "PreMitigation_Capacity_Spaces": 0, "PreMitigation_Square_Footage": 0, "EHPA_Capacity_Gained_Spaces": 0, "EHPA_Square_Footage_Gained": 0, "Retrofit_Capacity_Gained_Spaces": 367, "Retrofit_Square_Footage_Gained": 7331, "Risk_Capacity_Spaces": 367, "Risk_Square_Footage": 7331, "Planned_Usage_Spaces": 307, "FundingSource_F_Federal_State_S": "S", "Evacuation_Zone": "No", "SURGE_ZONE": "No", "FLOOD_ZONE": "No", "EHPA": "No", "General_Pop": "Yes", "SPECIAL_NEEDS": " ", "Pet_Friendly": "Yes", "Does_not_meet_ARC_4496": " ", "Survey_Needed": " "}}, {"type": "Feature", "id": 54, "geometry": {"type": "Point", "coordinates": [-87.36242901862755, 30.740428981160008]}, "properties": {"OBJECTID": 54, "Name": "Molino Park ES", "Address": "899 Hwy 97", "City": "Molino", "Zip": "32577", "COUNTY": "ESCAMBIA", "X": -87.36242902, "Y": 30.74042898, "LONGLAT": "-87.36242902, 30.74042898", "USNG": "16R DV 65306 00891", "FACILITY_TYPE": "SHELTER", "SHELTER_TYPE": "RISK", "RPC_Region": "1", "Year_Built": "2002", "Building": "2 Art / Classroom", "AS_IS_A_Retrofit_R": "R", "Generator_Type": " ", "PreMitigation_Capacity_Spaces": 0, "PreMitigation_Square_Footage": 0, "EHPA_Capacity_Gained_Spaces": 0, "EHPA_Square_Footage_Gained": 0, "Retrofit_Capacity_Gained_Spaces": 315, "Retrofit_Square_Footage_Gained": 6295, "Risk_Capacity_Spaces": 315, "Risk_Square_Footage": 6295, "Planned_Usage_Spaces": 307, "FundingSource_F_Federal_State_S": "S", "Evacuation_Zone": "No", "SURGE_ZONE": "No", "FLOOD_ZONE": "No", "EHPA": "No", "General_Pop": "Yes", "SPECIAL_NEEDS": " ", "Pet_Friendly": "Yes", "Does_not_meet_ARC_4496": " ", "Survey_Needed": " "}}, {"type": "Feature", "id": 55, "geometry": {"type": "Point", "coordinates": [-87.36242901862755, 30.740428981160008]}, "properties": {"OBJECTID": 55, "Name": "Molino Park ES", "Address": "899 Hwy 97", "City": "Molino", "Zip": "32577", "COUNTY": "ESCAMBIA", "X": -87.36242902, "Y": 30.74042898, "LONGLAT": "-87.36242902, 30.74042898", "USNG": "16R DV 65306 00891", "FACILITY_TYPE": "SHELTER", "SHELTER_TYPE": "RISK", "RPC_Region": "1", "Year_Built": "2002", "Building": "1 Admin / Cafeteria / Media", "AS_IS_A_Retrofit_R": "A", "Generator_Type": " ", "PreMitigation_Capacity_Spaces": 0, "PreMitigation_Square_Footage": 0, "EHPA_Capacity_Gained_Spaces": 683, "EHPA_Square_Footage_Gained": 13651, "Retrofit_Capacity_Gained_Spaces": 0, "Retrofit_Square_Footage_Gained": 0, "Risk_Capacity_Spaces": 683, "Risk_Square_Footage": 13651, "Planned_Usage_Spaces": 307, "FundingSource_F_Federal_State_S": "L", "Evacuation_Zone": "No", "SURGE_ZONE": "No", "FLOOD_ZONE": "No", "EHPA": "Yes", "General_Pop": "Yes", "SPECIAL_NEEDS": " ", "Pet_Friendly": "Yes", "Does_not_meet_ARC_4496": " ", "Survey_Needed": " "}}, {"type": "Feature", "id": 56, "geometry": {"type": "Point", "coordinates": [-87.36242901862755, 30.740428981160008]}, "properties": {"OBJECTID": 56, "Name": "Molino Park ES", "Address": "899 Hwy 97", "City": "Molino", "Zip": "32577", "COUNTY": "ESCAMBIA", "X": -87.36242902, "Y": 30.74042898, "LONGLAT": "-87.36242902, 30.74042898", "USNG": "16R DV 65306 00891", "FACILITY_TYPE": "SHELTER", "SHELTER_TYPE": "RISK", "RPC_Region": "1", "Year_Built": "2002", "Building": "3 Classroom", "AS_IS_A_Retrofit_R": "R", "Generator_Type": " ", "PreMitigation_Capacity_Spaces": 0, "PreMitigation_Square_Footage": 0, "EHPA_Capacity_Gained_Spaces": 0, "EHPA_Square_Footage_Gained": 0, "Retrofit_Capacity_Gained_Spaces": 357, "Retrofit_Square_Footage_Gained": 7137, "Risk_Capacity_Spaces": 357, "Risk_Square_Footage": 7137, "Planned_Usage_Spaces": 307, "FundingSource_F_Federal_State_S": "S", "Evacuation_Zone": "No", "SURGE_ZONE": "No", "FLOOD_ZONE": "No", "EHPA": "No", "General_Pop": "Yes", "SPECIAL_NEEDS": " ", "Pet_Friendly": "Yes", "Does_not_meet_ARC_4496": " ", "Survey_Needed": " "}}, {"type": "Feature", "id": 57, "geometry": {"type": "Point", "coordinates": [-87.36242901862755, 30.740428981160008]}, "properties": {"OBJECTID": 57, "Name": "Molino Park ES", "Address": "899 Hwy 97", "City": "Molino", "Zip": "32577", "COUNTY": "ESCAMBIA", "X": -87.36242902, "Y": 30.74042898, "LONGLAT": "-87.36242902, 30.74042898", "USNG": "16R DV 65306 00891", "FACILITY_TYPE": "SHELTER", "SHELTER_TYPE": "RISK", "RPC_Region": "1", "Year_Built": "2002", "Building": "5 Classroom", "AS_IS_A_Retrofit_R": "R", "Generator_Type": " ", "PreMitigation_Capacity_Spaces": 0, "PreMitigation_Square_Footage": 0, "EHPA_Capacity_Gained_Spaces": 0, "EHPA_Square_Footage_Gained": 0, "Retrofit_Capacity_Gained_Spaces": 229, "Retrofit_Square_Footage_Gained": 4589, "Risk_Capacity_Spaces": 229, "Risk_Square_Footage": 4589, "Planned_Usage_Spaces": 307, "FundingSource_F_Federal_State_S": "S", "Evacuation_Zone": "No", "SURGE_ZONE": "No", "FLOOD_ZONE": "No", "EHPA": "No", "General_Pop": "Yes", "SPECIAL_NEEDS": " ", "Pet_Friendly": "Yes", "Does_not_meet_ARC_4496": " ", "Survey_Needed": " "}}, {"type": "Feature", "id": 101, "geometry": {"type": "Point", "coordinates": [-86.56203002015378, 30.794098013474922]}, "properties": {"OBJECTID": 101, "Name": "Davidson MS", "Address": "6261 Old Bethel Rd", "City": "Crestview", "Zip": "32536", "COUNTY": "OKALOOSA", "X": -86.56203002, "Y": 30.79409801, "LONGLAT": "-86.56203002, 30.79409801", "USNG": "16R EV 41901 06865", "FACILITY_TYPE": "SHELTER", "SHELTER_TYPE": "RISK", "RPC_Region": "1", "Year_Built": "1997", "Building": "1A Main", "AS_IS_A_Retrofit_R": "R", "Generator_Type": "Yes, unknown kW", "PreMitigation_Capacity_Spaces": 0, "PreMitigation_Square_Footage": 0, "EHPA_Capacity_Gained_Spaces": 0, "EHPA_Square_Footage_Gained": 0, "Retrofit_Capacity_Gained_Spaces": 82, "Retrofit_Square_Footage_Gained": 4920, "Risk_Capacity_Spaces": 82, "Risk_Square_Footage": 4920, "Planned_Usage_Spaces": 82, "FundingSource_F_Federal_State_S": "S", "Evacuation_Zone": "No", "SURGE_ZONE": "No", "FLOOD_ZONE": "No", "EHPA": "No", "General_Pop": " ", "SPECIAL_NEEDS": "Yes", "Pet_Friendly": "Yes", "Does_not_meet_ARC_4496": " ", "Survey_Needed": " "}}, {"type": "Feature", "id": 102, "geometry": {"type": "Point", "coordinates": [-86.61156203867044, 30.71498898345315]}, "properties": {"OBJECTID": 102, "Name": "Antioch ES", "Address": "4700 Whitehurst Ln", "City": "Crestview", "Zip": "32536", "COUNTY": "OKALOOSA", "X": -86.61156204, "Y": 30.71498898, "LONGLAT": "-86.61156204, 30.71498898", "USNG": "16R EU 37192 98080", "FACILITY_TYPE": "SHELTER", "SHELTER_TYPE": "RISK", "RPC_Region": "1", "Year_Built": "1997", "Building": "1 Main", "AS_IS_A_Retrofit_R": "R", "Generator_Type": " ", "PreMitigation_Capacity_Spaces": 0, "PreMitigation_Square_Footage": 0, "EHPA_Capacity_Gained_Spaces": 0, "EHPA_Square_Footage_Gained": 0, "Retrofit_Capacity_Gained_Spaces": 1303, "Retrofit_Square_Footage_Gained": 26058, "Risk_Capacity_Spaces": 1303, "Risk_Square_Footage": 26058, "Planned_Usage_Spaces": 1737, "FundingSource_F_Federal_State_S": "S-1467-2004", "Evacuation_Zone": "No", "SURGE_ZONE": "No", "FLOOD_ZONE": "No", "EHPA": "No", "General_Pop": "Yes", "SPECIAL_NEEDS": " ", "Pet_Friendly": "Yes", "Does_not_meet_ARC_4496": " ", "Survey_Needed": " "}}, {"type": "Feature", "id": 103, "geometry": {"type": "Point", "coordinates": [-86.56203002015378, 30.794098013474922]}, "properties": {"OBJECTID": 103, "Name": "Davidson MS", "Address": "6261 Old Bethel Rd", "City": "Crestview", "Zip": "32536", "COUNTY": "OKALOOSA", "X": -86.56203002, "Y": 30.79409801, "LONGLAT": "-86.56203002, 30.79409801", "USNG": "16R EV 41901 06865", "FACILITY_TYPE": "SHELTER", "SHELTER_TYPE": "RISK", "RPC_Region": "1", "Year_Built": "1997", "Building": "1 Main", "AS_IS_A_Retrofit_R": "R", "Generator_Type": " ", "PreMitigation_Capacity_Spaces": 0, "PreMitigation_Square_Footage": 0, "EHPA_Capacity_Gained_Spaces": 0, "EHPA_Square_Footage_Gained": 0, "Retrofit_Capacity_Gained_Spaces": 2305, "Retrofit_Square_Footage_Gained": 46100, "Risk_Capacity_Spaces": 2305, "Risk_Square_Footage": 46100, "Planned_Usage_Spaces": 3267, "FundingSource_F_Federal_State_S": "S", "Evacuation_Zone": "No", "SURGE_ZONE": "No", "FLOOD_ZONE": "No", "EHPA": "No", "General_Pop": "Yes", "SPECIAL_NEEDS": " ", "Pet_Friendly": "Yes", "Does_not_meet_ARC_4496": " ", "Survey_Needed": " "}}, {"type": "Feature", "id": 134, "geometry": {"type": "Point", "coordinates": [-87.09763924631976, 30.571623279173753]}, "properties": {"OBJECTID": 134, "Name": "Avalon MS", "Address": "5445 King Arthur's Way", "City": "Milton", "Zip": "32583", "COUNTY": "SANTA ROSA", "X": -87.09763925, "Y": 30.57162328, "LONGLAT": "-87.09763925, 30.57162328", "USNG": "16R DU 90637 82132", "FACILITY_TYPE": "SHELTER", "SHELTER_TYPE": "RISK", "RPC_Region": "1", "Year_Built": "1998", "Building": "1 Main EHPA", "AS_IS_A_Retrofit_R": "A", "Generator_Type": "80 kW", "PreMitigation_Capacity_Spaces": 0, "PreMitigation_Square_Footage": 0, "EHPA_Capacity_Gained_Spaces": 1559, "EHPA_Square_Footage_Gained": 31176, "Retrofit_Capacity_Gained_Spaces": 0, "Retrofit_Square_Footage_Gained": 0, "Risk_Capacity_Spaces": 1559, "Risk_Square_Footage": 31176, "Planned_Usage_Spaces": 1559, "FundingSource_F_Federal_State_S": "HMGP", "Evacuation_Zone": "No", "SURGE_ZONE": "No", "FLOOD_ZONE": "No", "EHPA": "Yes", "General_Pop": "Yes", "SPECIAL_NEEDS": " ", "Pet_Friendly": "Yes", "Does_not_meet_ARC_4496": " ", "Survey_Needed": " "}}]}