{"type": "FeatureCollection", "features": [{"type": "Feature", "id": 7, "geometry": {"type": "Point", "coordinates": [-85.68895470632282, 30.39417873145063]}, "properties": {"OBJECTID": 7, "Name": "Bozeman Learning Center", "Address": "13410 SR 77", "City": "Panama City", "Zip": "32409", "COUNTY": "BAY", "X": -85.68895471, "Y": 30.39417873, "LONGLAT": "-85.68895471, 30.39417873", "USNG": "16R FU 25949 63194", "FACILITY_TYPE": "SHELTER", "SHELTER_TYPE": "RISK", "RPC_Region": "1", "Year_Built": "2000", "Building": "9 Cafeteria", "AS_IS_A_Retrofit_R": "A", "Generator_Type": "HW 600KW", "PreMitigation_Capacity_Spaces": 0, "PreMitigation_Square_Footage": 0, "EHPA_Capacity_Gained_Spaces": 110, "EHPA_Square_Footage_Gained": 8277, "Retrofit_Capacity_Gained_Spaces": 0, "Retrofit_Square_Footage_Gained": 0, "Risk_Capacity_Spaces": 138, "Risk_Square_Footage": 8277, "Planned_Usage_Spaces": 108, "FundingSource_F_Federal_State_S": "EHPA", "Evacuation_Zone": "No", "SURGE_ZONE": "No", "FLOOD_ZONE": "No", "EHPA": "Yes", "General_Pop": " ", "SPECIAL_NEEDS": "Yes", "Pet_Friendly": "Yes", "Does_not_meet_ARC_4496": " ", "Survey_Needed": " "}}, {"type": "Feature", "id": 8, "geometry": {"type": "Point", "coordinates": [-85.68895470632282, 30.39417873145063]}, "properties": {"OBJECTID": 8, "Name": "Bozeman Learning Center", "Address": "13410 SR 77", "City": "Panama City", "Zip": "32409", "COUNTY": "BAY", "X": -85.68895471, "Y": 30.39417873, "LONGLAT": "-85.68895471, 30.39417873", "USNG": "16R FU 25949 63194", "FACILITY_TYPE": "SHELTER", "SHELTER_TYPE": "RISK", "RPC_Region": "1", "Year_Built": "2000", "Building": "8 Gym", "AS_IS_A_Retrofit_R": "A", "Generator_Type": "HW 600KW", "PreMitigation_Capacity_Spaces": 0, "PreMitigation_Square_Footage": 0, "EHPA_Capacity_Gained_Spaces": 191, "EHPA_Square_Footage_Gained": 11466, "Retrofit_Capacity_Gained_Spaces": 0, "Retrofit_Square_Footage_Gained": 0, "Risk_Capacity_Spaces": 191, "Risk_Square_Footage": 11466, "Planned_Usage_Spaces": 0, "FundingSource_F_Federal_State_S": "HMGP / EHPA", "Evacuation_Zone": "No", "SURGE_ZONE": "No", "FLOOD_ZONE": "No", "EHPA": "Yes", "General_Pop": " ", "SPECIAL_NEEDS": "Yes", "Pet_Friendly": "Yes", "Does_not_meet_ARC_4496": " ", "Survey_Needed": " "}}, {"type": "Feature", "id": 51, "geometry": {"type": "Point", "coordinates": [-87.2005700261749, 30.48082999813557]}, "properties": {"OBJECTID": 51, "Name": "Pensacola State College", "Address": "1000 College Ave", "City": "Pensacola", "Zip": "32504", "COUNTY": "ESCAMBIA", "X": -87.20057003, "Y": 30.48083, "LONGLAT": "-87.20057003, 30.48083000", "USNG": "16R DU 80749 72084", "FACILITY_TYPE": "SHELTER", "SHELTER_TYPE": "RISK", "RPC_Region": "1", "Year_Built": "0", "Building": "Lou Ross Athletics", "AS_IS_A_Retrofit_R": "R", "Generator_Type": " ", "PreMitigation_Capacity_Spaces": 0, "PreMitigation_Square_Footage": 0, "EHPA_Capacity_Gained_Spaces": 0, "EHPA_Square_Footage_Gained": 0, "Retrofit_Capacity_Gained_Spaces": 0, "Retrofit_Square_Footage_Gained": 0, "Risk_Capacity_Spaces": 558, "Risk_Square_Footage": 33480, "Planned_Usage_Spaces": 0, "FundingSource_F_Federal_State_S": " ", "Evacuation_Zone": "No", "SURGE_ZONE": "No", "FLOOD_ZONE": "No", "EHPA": "No", "General_Pop": " ", "SPECIAL_NEEDS": "Yes", "Pet_Friendly": " ", "Does_not_meet_ARC_4496": " ", "Survey_Needed": "Yes"}}, {"type": "Feature", "id": 52, "geometry": {"type": "Point", "coordinates": [-87.29375841185619, 30.48647557112941]}, "properties": {"OBJECTID": 52, "Name": "West Florida HS", "Address": "2404 Longleaf Dr", "City": "Pensacola", "Zip": "32506", "COUNTY": "ESCAMBIA", "X": -87.29375841, "Y": 30.48647557, "LONGLAT": "-87.29375841, 30.48647557", "USNG": "16R DU 71806 72729", "FACILITY_TYPE": "SHELTER", "SHELTER_TYPE": "RISK", "RPC_Region": "1", "Year_Built": "2002", "Building": "9 Gym / Cafeteria", "AS_IS_A_Retrofit_R": "A", "Generator_Type": " ", "PreMitigation_Capacity_Spaces": 0, "PreMitigation_Square_Footage": 0, "EHPA_Capacity_Gained_Spaces": 0, "EHPA_Square_Footage_Gained": 0, "Retrofit_Capacity_Gained_Spaces": 0, "Retrofit_Square_Footage_Gained": 0, "Risk_Capacity_Spaces": 291, "Risk_Square_Footage": 14174, "Planned_Usage_Spaces": 291, "FundingSource_F_Federal_State_S": "L", "Evacuation_Zone": "No", "SURGE_ZONE": "No", "FLOOD_ZONE": "No", "EHPA": "No", "General_Pop": " ", "SPECIAL_NEEDS": "Yes", "Pet_Friendly": " ", "Does_not_meet_ARC_4496": " ", "Survey_Needed": " "}}, {"type": "Feature", "id": 53, "geometry": {"type": "Point", "coordinates": [-87.29375841185619, 30.48647557112941]}, "properties": {"OBJECTID": 53, "Name": "West Florida HS", "Address": "2404 Longleaf Dr", "City": "Pensacola", "Zip": "32506", "COUNTY": "ESCAMBIA", "X": -87.29375841, "Y": 30.48647557, "LONGLAT": "-87.29375841, 30.48647557", "USNG": "16R DU 71806 72729", "FACILITY_TYPE": "SHELTER", "SHELTER_TYPE": "RISK", "RPC_Region": "1", "Year_Built": "1992", "Building": " 26 Classroom", "AS_IS_A_Retrofit_R": "R", "Generator_Type": "HW 800 KW", "PreMitigation_Capacity_Spaces": 0, "PreMitigation_Square_Footage": 0, "EHPA_Capacity_Gained_Spaces": 0, "EHPA_Square_Footage_Gained": 0, "Retrofit_Capacity_Gained_Spaces": 89, "Retrofit_Square_Footage_Gained": 6096, "Risk_Capacity_Spaces": 89, "Risk_Square_Footage": 6096, "Planned_Usage_Spaces": 103, "FundingSource_F_Federal_State_S": "S", "Evacuation_Zone": "No", "SURGE_ZONE": "No", "FLOOD_ZONE": "No", "EHPA": "No", "General_Pop": " ", "SPECIAL_NEEDS": "Yes", "Pet_Friendly": " ", "Does_not_meet_ARC_4496": " ", "Survey_Needed": " "}}, {"type": "Feature", "id": 54, "geometry": {"type": "Point", "coordinates": [-87.29375841185619, 30.48647557112941]}, "properties": {"OBJECTID": 54, "Name": "West Florida HS", "Address": "2404 Longleaf Dr", "City": "Pensacola", "Zip": "32506", "COUNTY": "ESCAMBIA", "X": -87.29375841, "Y": 30.48647557, "LONGLAT": "-87.29375841, 30.48647557", "USNG": "16R DU 71806 72729", "FACILITY_TYPE": "SHELTER", "SHELTER_TYPE": "RISK", "RPC_Region": "1", "Year_Built": "1991", "Building": "25 Cafeteria", "AS_IS_A_Retrofit_R": "R", "Generator_Type": "HW 800 KW", "PreMitigation_Capacity_Spaces": 0, "PreMitigation_Square_Footage": 0, "EHPA_Capacity_Gained_Spaces": 0, "EHPA_Square_Footage_Gained": 0, "Retrofit_Capacity_Gained_Spaces": 222, "Retrofit_Square_Footage_Gained": 12993, "Risk_Capacity_Spaces": 222, "Risk_Square_Footage": 12993, "Planned_Usage_Spaces": 254, "FundingSource_F_Federal_State_S": "S", "Evacuation_Zone": "No", "SURGE_ZONE": "No", "FLOOD_ZONE": "No", "EHPA": "No", "General_Pop": " ", "SPECIAL_NEEDS": "Yes", "Pet_Friendly": " ", "Does_not_meet_ARC_4496": " ", "Survey_Needed": " "}}, {"type": "Feature", "id": 118, "geometry": {"type": "Point", "coordinates": [-86.56203002015378, 30.794098013474922]}, "properties": {"OBJECTID": 118, "Name": "Davidson MS", "Address": "6261 Old Bethel Rd", "City": "Crestview", "Zip": "32536", "COUNTY": "OKALOOSA", "X": -86.56203002, "Y": 30.79409801, "LONGLAT": "-86.56203002, 30.79409801", "USNG": "16R EV 41901 06865", "FACILITY_TYPE": "SHELTER", "SHELTER_TYPE": "RISK", "RPC_Region": "1", "Year_Built": "1997", "Building": "1A Main", "AS_IS_A_Retrofit_R": "R", "Generator_Type": "Yes, unknown kW", "PreMitigation_Capacity_Spaces": 0, "PreMitigation_Square_Footage": 0, "EHPA_Capacity_Gained_Spaces": 0, "EHPA_Square_Footage_Gained": 0, "Retrofit_Capacity_Gained_Spaces": 82, "Retrofit_Square_Footage_Gained": 4920, "Risk_Capacity_Spaces": 82, "Risk_Square_Footage": 4920, "Planned_Usage_Spaces": 82, "FundingSource_F_Federal_State_S": "S", "Evacuation_Zone": "No", "SURGE_ZONE": "No", "FLOOD_ZONE": "No", "EHPA": "No", "General_Pop": " ", "SPECIAL_NEEDS": "Yes", "Pet_Friendly": "Yes", "Does_not_meet_ARC_4496": " ", "Survey_Needed": " "}}, {"type": "Feature", "id": 156, "geometry": {"type": "Point", "coordinates": [-87.09551854969759, 30.57301486729866]}, "properties": {"OBJECTID": 156, "Name": "Bennet C. Russel ES", "Address": "3740 Excalibur Way", "City": "Milton", "Zip": "32583", "COUNTY": "SANTA ROSA", "X": -87.09551855, "Y": 30.57301487, "LONGLAT": "-87.09551855, 30.57301487", "USNG": "16R DU 90840 82286", "FACILITY_TYPE": "SHELTER", "SHELTER_TYPE": "RISK", "RPC_Region": "1", "Year_Built": "2006", "Building": "1 A/C Corridors / Cafeteria", "AS_IS_A_Retrofit_R": "A", "Generator_Type": "HW 600KW; GenSet", "PreMitigation_Capacity_Spaces": 0, "PreMitigation_Square_Footage": 0, "EHPA_Capacity_Gained_Spaces": 237, "EHPA_Square_Footage_Gained": 14196, "Retrofit_Capacity_Gained_Spaces": 0, "Retrofit_Square_Footage_Gained": 0, "Risk_Capacity_Spaces": 237, "Risk_Square_Footage": 14196, "Planned_Usage_Spaces": 0, "FundingSource_F_Federal_State_S": " ", "Evacuation_Zone": "No", "SURGE_ZONE": "No", "FLOOD_ZONE": "No", "EHPA": "No", "General_Pop": " ", "SPECIAL_NEEDS": "Yes", "Pet_Friendly": " ", "Does_not_meet_ARC_4496": " ", "Survey_Needed": "Yes"}}, {"type": "Feature", "id": 157, "geometry": {"type": "Point", "coordinates": [-87.04856303770535, 30.63950001188845]}, "properties": {"OBJECTID": 157, "Name": "Milton Community Center", "Address": "5629 Byrom St", "City": "Milton", "Zip": "32570", "COUNTY": "SANTA ROSA", "X": -87.04856304, "Y": 30.63950001, "LONGLAT": "-87.04856304, 30.63950001", "USNG": "16R DU 95346 89651", "FACILITY_TYPE": "SHELTER", "SHELTER_TYPE": "RISK", "RPC_Region": "1", "Year_Built": "2002", "Building": "Main", "AS_IS_A_Retrofit_R": "R", "Generator_Type": "280 kW", "PreMitigation_Capacity_Spaces": 0, "PreMitigation_Square_Footage": 0, "EHPA_Capacity_Gained_Spaces": 0, "EHPA_Square_Footage_Gained": 0, "Retrofit_Capacity_Gained_Spaces": 128, "Retrofit_Square_Footage_Gained": 7667, "Risk_Capacity_Spaces": 128, "Risk_Square_Footage": 7667, "Planned_Usage_Spaces": 24, "FundingSource_F_Federal_State_S": " ", "Evacuation_Zone": "No", "SURGE_ZONE": "No", "FLOOD_ZONE": "No", "EHPA": "No", "General_Pop": " ", "SPECIAL_NEEDS": "Yes", "Pet_Friendly": " ", "Does_not_meet_ARC_4496": "Yes", "Survey_Needed": " "}}, {"type": "Feature", "id": 158, "geometry": {"type": "Point", "coordinates": [-87.16763995901148, 30.635510980089933]}, "properties": {"OBJECTID": 158, "Name": "Thomas L. Sims MS", "Address": "5500 Education Dr", "City": "Pace", "Zip": "32571", "COUNTY": "SANTA ROSA", "X": -87.16763996, "Y": 30.63551098, "LONGLAT": "-87.16763996, 30.63551098", "USNG": "16R DU 83935 89220", "FACILITY_TYPE": "SHELTER", "SHELTER_TYPE": "RISK", "RPC_Region": "1", "Year_Built": "1997", "Building": "1", "AS_IS_A_Retrofit_R": "R", "Generator_Type": "600kW plus 80 kW", "PreMitigation_Capacity_Spaces": 0, "PreMitigation_Square_Footage": 0, "EHPA_Capacity_Gained_Spaces": 0, "EHPA_Square_Footage_Gained": 0, "Retrofit_Capacity_Gained_Spaces": 704, "Retrofit_Square_Footage_Gained": 42262, "Risk_Capacity_Spaces": 704, "Risk_Square_Footage": 42262, "Planned_Usage_Spaces": 351, "FundingSource_F_Federal_State_S": "HMGP", "Evacuation_Zone": "No", "SURGE_ZONE": "No", "FLOOD_ZONE": "No", "EHPA": "No", "General_Pop": " ", "SPECIAL_NEEDS": "Yes", "Pet_Friendly": " ", "Does_not_meet_ARC_4496": " ", "Survey_Needed": " "}}, {"type": "Feature", "id": 172, "geometry": {"type": "Point", "coordinates": [-86.11248955733292, 30.71259559935731]}, "properties": {"OBJECTID": 172, "Name": "Walton MS", "Address": "625 Park Ave", "City": "DeFuniak Springs", "Zip": "32435", "COUNTY": "WALTON", "X": -86.11248956, "Y": 30.7125956, "LONGLAT": "-86.11248956, 30.71259560", "USNG": "16R EU 84981 98087", "FACILITY_TYPE": "SHELTER", "SHELTER_TYPE": "RISK", "RPC_Region": "1", "Year_Built": "2002", "Building": "9 Classroom", "AS_IS_A_Retrofit_R": "R", "Generator_Type": "Yes, unknown kW", "PreMitigation_Capacity_Spaces": 0, "PreMitigation_Square_Footage": 0, "EHPA_Capacity_Gained_Spaces": 0, "EHPA_Square_Footage_Gained": 0, "Retrofit_Capacity_Gained_Spaces": 160, "Retrofit_Square_Footage_Gained": 9610, "Risk_Capacity_Spaces": 160, "Risk_Square_Footage": 9610, "Planned_Usage_Spaces": 92, "FundingSource_F_Federal_State_S": "S-1508-2005", "Evacuation_Zone": "No", "SURGE_ZONE": "No", "FLOOD_ZONE": "No", "EHPA": "No", "General_Pop": " ", "SPECIAL_NEEDS": "Yes", "Pet_Friendly": " ", "Does_not_meet_ARC_4496": " ", "Survey_Needed": " "}}]}